NUSAT-48 (HENRIETTA LE*)
1 60498U 24149AG  26068.80506098  .00012988  00000+0  45212-3 0  9999
2 60498  97.3923 150.8264 0002754 263.3026  96.7901 15.29812597 86946
STARLINK-35868          
1 66579U 25268Y   26068.18552235  .00027892  00000+0  10189-2 0  9997
2 66579  43.0033 349.8208 0003031 249.1192 110.9336 15.27589789 17885
